{"fetched_at":"2026-07-17T17:38:27.058Z","source":"https://celestrak.org/NORAD/elements/gp.php?NAME=NUSAT&FORMAT=JSON","constellation":"satellogic","records":[{"OBJECT_NAME":"NUSAT-47","OBJECT_ID":"2025-276CF","EPOCH":"2026-07-17T04:11:23.529696","CLASSIFICATION_TYPE":"U","MEAN_MOTION":15.20596838,"ECCENTRICITY":0.00006769,"INCLINATION":97.4178,"RA_OF_ASC_NODE":271.3092,"ARG_OF_PERICENTER":187.5441,"MEAN_ANOMALY":172.5785,"EPHEMERIS_TYPE":0,"NORAD_CAT_ID":66743,"ELEMENT_SET_NO":999,"REV_AT_EPOCH":3498,"BSTAR":0.00013661515,"MEAN_MOTION_DOT":0.00002925,"MEAN_MOTION_DDOT":0},{"OBJECT_NAME":"NUSAT-53 (JANE GOODALL)","OBJECT_ID":"2026-067S","EPOCH":"2026-07-17T07:26:15.202752","CLASSIFICATION_TYPE":"U","MEAN_MOTION":15.18861854,"ECCENTRICITY":0.0000391,"INCLINATION":97.4579,"RA_OF_ASC_NODE":156.402,"ARG_OF_PERICENTER":331.6261,"MEAN_ANOMALY":28.4952,"EPHEMERIS_TYPE":0,"NORAD_CAT_ID":68432,"ELEMENT_SET_NO":999,"REV_AT_EPOCH":1651,"BSTAR":0.00014050584,"MEAN_MOTION_DOT":0.0000286,"MEAN_MOTION_DDOT":0},{"OBJECT_NAME":"NUSAT-54 (BRANCA MARQUES)","OBJECT_ID":"2026-067AC","EPOCH":"2026-07-17T07:15:53.622144","CLASSIFICATION_TYPE":"U","MEAN_MOTION":15.18007628,"ECCENTRICITY":0.00035886,"INCLINATION":97.4561,"RA_OF_ASC_NODE":156.2349,"ARG_OF_PERICENTER":352.918,"MEAN_ANOMALY":7.2002,"EPHEMERIS_TYPE":0,"NORAD_CAT_ID":68442,"ELEMENT_SET_NO":999,"REV_AT_EPOCH":1650,"BSTAR":0.00013787971,"MEAN_MOTION_DOT":0.00002736,"MEAN_MOTION_DDOT":0}]}
