NUSAT-47                
1 66743U 25276CF  26198.17457789  .00002925  00000+0  13662-3 0  9990
2 66743  97.4178 271.3092 0000676 187.5441 172.5785 15.20596838 34983
NUSAT-53 (JANE GOODALL) 
1 68432U 26067S   26198.30989817  .00002860  00000+0  14051-3 0  9994
2 68432  97.4579 156.4020 0000391 331.6261  28.4952 15.18861854 16519
NUSAT-54 (BRANCA MARQU*)
1 68442U 26067AC  26198.30270396  .00002736  00000+0  13788-3 0  9998
2 68442  97.4561 156.2349 0003589 352.9180   7.2002 15.18007628 16502
